LANDSAT 8               
1 39084U 13008A   20228.45448326 -.00000495  00000-0 -99886-4 0  9990
2 39084  98.2222 297.4139 0001599  88.7960 271.3403 14.57102123399296
